FLOCK 4G-2              
1 62661U 25009BE  26068.66207492  .00013752  00000+0  51068-3 0  9995
2 62661  97.4044 151.2221 0003181 329.2677  30.8376 15.27675260121321
STARLINK-35853          
1 67177U 25303Q   26067.70417879  .00014547  00000+0  53714-3 0  9998
2 67177  42.9964 316.3452 0001249 280.8737  79.1974 15.27576586 12584
